{
    "links": {
        "self": "http://www.neowsapp.com/rest/v1/neo/3991731?api_key=iIulBulltgU6a56xZRHN4H3l9WmuAYTsLGpBGhQ2"
    },
    "id": "3991731",
    "neo_reference_id": "3991731",
    "name": "(2020 DE2)",
    "designation": "2020 DE2",
    "nasa_jpl_url": "http://ssd.jpl.nasa.gov/sbdb.cgi?sstr=3991731",
    "absolute_magnitude_h": 27.48,
    "estimated_diameter": {
        "kilometers": {
            "estimated_diameter_min": 0.0084831076,
            "estimated_diameter_max": 0.0189688053
        },
        "meters": {
            "estimated_diameter_min": 8.4831076189,
            "estimated_diameter_max": 18.9688052962
        },
        "miles": {
            "estimated_diameter_min": 0.0052711571,
            "estimated_diameter_max": 0.0117866655
        },
        "feet": {
            "estimated_diameter_min": 27.8317188003,
            "estimated_diameter_max": 62.233615168
        }
    },
    "is_potentially_hazardous_asteroid": false,
    "close_approach_data": [
        {
            "close_approach_date": "2020-02-08",
            "close_approach_date_full": "2020-Feb-08 07:19",
            "epoch_date_close_approach": 1581146340000,
            "relative_velocity": {
                "kilometers_per_second": "3.3599339526",
                "kilometers_per_hour": "12095.7622292627",
                "miles_per_hour": "7515.8362585105"
            },
            "miss_distance": {
                "astronomical": "0.0181146283",
                "lunar": "7.0465904087",
                "kilometers": "2709909.809521721",
                "miles": "1683859.8740169098"
            },
            "orbiting_body": "Earth"
        },
        {
            "close_approach_date": "2023-06-14",
            "close_approach_date_full": "2023-Jun-14 10:13",
            "epoch_date_close_approach": 1686737580000,
            "relative_velocity": {
                "kilometers_per_second": "7.38603967",
                "kilometers_per_hour": "26589.7428121792",
                "miles_per_hour": "16521.8321379344"
            },
            "miss_distance": {
                "astronomical": "0.4831191294",
                "lunar": "187.9333413366",
                "kilometers": "72273592.714494378",
                "miles": "44908728.0673952964"
            },
            "orbiting_body": "Earth"
        }
    ],
    "orbital_data": {
        "orbit_id": "2",
        "orbit_determination_date": "2020-02-27 10:09:45",
        "first_observation_date": "2020-02-19",
        "last_observation_date": "2020-02-27",
        "data_arc_in_days": 8,
        "observations_used": 17,
        "orbit_uncertainty": "8",
        "minimum_orbit_intersection": ".0118481",
        "jupiter_tisserand_invariant": "5.054",
        "epoch_osculation": "2458902.5",
        "eccentricity": ".2250905962802345",
        "semi_major_axis": "1.271994444643943",
        "inclination": ".7462084287908128",
        "ascending_node_longitude": "228.6887733452484",
        "orbital_period": "523.9939210875492",
        "perihelion_distance": ".985680456633892",
        "perihelion_argument": "249.8307225506776",
        "aphelion_distance": "1.558308432653994",
        "perihelion_time": "2458869.977266483656",
        "mean_anomaly": "22.34412193481845",
        "mean_motion": ".6870308709933507",
        "equinox": "J2000",
        "orbit_class": {
            "orbit_class_type": "APO",
            "orbit_class_description": "Near-Earth asteroid orbits which cross the Earth’s orbit similar to that of 1862 Apollo",
            "orbit_class_range": "a (semi-major axis) > 1.0 AU; q (perihelion) < 1.017 AU"
        }
    },
    "is_sentry_object": false
}